0 BREEZE-M DEB (TANK)
1 37604U 11021C   13281.44673076  .00000345  00000-0  33815-3 0  8014
2 37604 049.3647 080.2898 6037469 027.3185 010.9990 03.91174253 33369
0 BREEZE-M DEB (TANK)
1 37604U 11021C   13282.72458765  .00000252  00000-0  26940-3 0  8021
2 37604 049.3644 079.6267 6037424 027.8924 010.4918 03.91179029 33412
0 BREEZE-M DEB (TANK)
1 37604U 11021C   13283.73558811  .00000944  00000-0  64741-3 0  8047
2 37604 049.3178 079.0769 6037612 028.3622 354.2322 03.91174342 33450
0 BREEZE-M DEB (TANK)
1 37604U 11021C   13283.74642457  .00000285  00000-0  26042-3 0  8037
2 37604 049.3642 079.0965 6037410 028.3515 009.4676 03.91180548 33457
0 BREEZE-M DEB (TANK)
1 37604U 11021C   13285.79508954  .00000492  00000-0  30724-3 0  8051
2 37604 049.3642 078.0340 6037408 029.2720 014.4861 03.91181237 33535
0 BREEZE-M DEB (TANK)
1 37604U 11021C   13287.58851571  .00000765  00000-0  44605-3 0  8063
2 37604 049.3636 077.1035 6037431 030.0769 020.0913 03.91181514 33605
0 BREEZE-M DEB (TANK)
1 37604U 11021C   13288.60508477  .00000812  00000-0  48194-3 0  8072
2 37604 049.3634 076.5762 6037455 030.5323 011.6830 03.91182610 33646
0 BREEZE-M DEB (TANK)
1 37604U 11021C   13290.63727109 -.00000714  00000-0  00000+0 0  8097
2 37604 049.3129 075.5131 6038012 031.4377 353.5311 03.91185512 33717
0 BREEZE-M DEB (TANK)
1 37604U 11021C   13290.65289719  .00000635  00000-0  43094-3 0  8083
2 37604 049.3630 075.5137 6037502 031.4488 015.5241 03.91185619 33722
0 BREEZE-M DEB (TANK)
1 37604U 11021C   13291.67019263  .00000486  00000-0  37938-3 0  8096
2 37604 049.3631 074.9858 6037501 031.9047 008.1348 03.91187634 33760
0 BREEZE-M DEB (TANK)
1 37604U 11021C   13292.69388597  .00000376  00000-0  35271-3 0  8106
2 37604 049.3632 074.4546 6037508 032.3634 009.7610 03.91189677 33807
0 BREEZE-M DEB (TANK)
1 37604U 11021C   13293.71599044  .00000298  00000-0  33701-3 0  8111
2 37604 049.3632 073.9242 6037504 032.8223 009.1596 03.91191451 33843
0 BREEZE-M DEB (TANK)
1 37604U 11021C   13294.74041098  .00000256  00000-0  32917-3 0  8129
2 37604 049.3631 073.3928 6037526 033.2814 011.8309 03.91192920 33880
